GLOBALSTAR M035 [-]     
1 25851U 99037A   23342.55791894 -.00000012  00000+0  19399-2 0  9997
2 25851  51.9927 216.2851 0013735 153.8892 289.4554 11.04527795 34753
GLOBALSTAR M032 [-]     
1 25852U 99037B   23342.48640082 -.00000068  00000+0 -27540-4 0  9993
2 25852  51.9960  80.0511 0007612 308.9827  51.0295 11.19046610 72462
GLOBALSTAR M051 [-]     
1 25853U 99037C   23342.29660032 -.00000057  00000+0  35852-3 0  9991
2 25853  51.9818 304.3074 0001602 315.8368  44.2315 11.42193375 68752
GLOBALSTAR M030 [-]     
1 25854U 99037D   23342.66201125 -.00000054  00000+0  44049-3 0  9992
2 25854  51.9845 144.9126 0005712 119.1895 240.9494 11.55084478 85833
GLOBALSTAR M048 [-]     
1 25872U 99041A   23342.06903531 -.00000055  00000+0  41505-3 0  9996
2 25872  51.9348 218.3457 0012476 305.0798 204.8450 11.33841933 61789
GLOBALSTAR M026 [-]     
1 25873U 99041B   23342.40411029 -.00000011  00000+0  19647-2 0  9994
2 25873  52.0040 340.4575 0001717  47.1190 102.7678 11.06832883 86830
GLOBALSTAR M043 [-]     
1 25874U 99041C   23342.35542875 -.00000087  00000+0 -56376-3 0  9998
2 25874  51.9420 303.1174 0013542  81.7536  88.4334 11.25675340 60160
GLOBALSTAR M028 [-]     
1 25875U 99041D   23342.47287856 -.00000086  00000+0  89124-4 0  9993
2 25875  51.9641  53.0334 0062929 302.4770  57.0018 12.50545576120525
